OBJECT_NAME,OBJECT_ID,EPOCH,MEAN_MOTION,ECCENTRICITY,INCLINATION,RA_OF_ASC_NODE,ARG_OF_PERICENTER,MEAN_ANOMALY,EPHEMERIS_TYPE,CLASSIFICATION_TYPE,NORAD_CAT_ID,ELEMENT_SET_NO,REV_AT_EPOCH,BSTAR,MEAN_MOTION_DOT,MEAN_MOTION_DDOT
COSMOS 2531 (RODNIK-S 17),2018-097B,2026-06-15T07:20:49.663968,12.42912105,.00177713,82.5192,224.5056,62.2013,298.0866,0,U,43752,999,34207,-.62257822E-3,-.76E-6,0
COSMOS 2532 (RODNIK-S 18),2018-097C,2026-06-15T06:05:37.453344,12.42909415,.00191701,82.5136,223.3247,64.1239,296.1814,0,U,43753,999,34203,-.12847856E-3,-.8E-7,0
MINXSS-2,2018-099A,2026-06-15T03:37:32.625984,15.46779392,.00064934,97.4544,242.3758,263.5903,96.4607,0,U,43758,999,41381,.57674978E-3,.28891E-3,0
SIRION PATHFINDER-2,2018-099B,2026-06-15T01:37:17.309280,15.14533187,.00073226,97.4254,215.1753,314.0244,46.0384,0,U,43759,999,41230,.24361953E-3,.4427E-4,0
AISTECHSAT 2,2018-099L,2026-06-15T02:35:39.107328,15.15431718,.0003309,97.4294,214.1874,320.8120,39.2873,0,U,43768,999,41196,.24634175E-3,.4591E-4,0
FOX-1CLIFF (AO-95),2018-099N,2026-06-15T02:40:24.381984,15.26676025,.00082015,97.4386,226.3649,5.4671,354.6656,0,U,43770,999,41290,.42484903E-3,.11091E-3,0
RANGE-A,2018-099R,2026-06-15T01:29:34.699488,15.13374040,.00100224,97.3964,208.7032,4.2857,355.8458,0,U,43773,999,41217,.27118325E-3,.4779E-4,0
SNUSAT-2,2018-099AA,2026-06-15T02:20:43.076256,15.21811146,.0008719,97.4059,219.5134,306.8695,53.1741,0,U,43782,999,41271,.33497297E-3,.7546E-4,0
SNUGLITE,2018-099AC,2026-06-15T02:41:56.627808,15.27141312,.00012509,97.3873,220.4128,309.1681,50.9447,0,U,43784,999,41300,.41079868E-3,.10865E-3,0
ITASAT,2018-099AE,2026-06-15T02:40:21.675072,15.19035090,.00123231,97.4029,217.6642,7.5940,352.5479,0,U,43786,999,41259,.28973527E-3,.6013E-4,0
EAGLET-I,2018-099AJ,2026-06-15T03:14:06.517824,15.12928072,.00108803,97.4233,215.8577,1.7928,358.3340,0,U,43790,999,41202,.22028741E-3,.3822E-4,0
ESEO,2018-099AL,2026-06-14T23:38:37.351392,15.04240129,.00115615,97.3971,203.4674,347.3137,12.7797,0,U,43792,999,41147,.15245165E-3,.2064E-4,0
THEA,2018-099AQ,2026-06-15T04:21:00.270432,15.34956405,.00058291,97.4445,235.8534,292.1070,67.9554,0,U,43796,999,41238,.42599876E-3,.1438E-3,0
ASTROCAST 0.1,2018-099AS,2026-06-15T04:40:32.729664,15.49419899,.00049986,97.4382,244.6297,210.9292,149.1665,0,U,43798,999,41412,.52993306E-3,.29082E-3,0
JY1SAT (JO-97),2018-099AX,2026-06-15T01:45:14.710752,15.33596637,.00042443,97.4132,228.8995,272.7751,87.3006,0,U,43803,999,41330,.4818861E-3,.1559E-3,0
SUOMI-100,2018-099AY,2026-06-15T02:40:08.750496,15.28375724,.00083989,97.4195,226.5118,287.6746,72.3576,0,U,43804,999,41310,.42363679E-3,.11648E-3,0
CENTAURI-1,2018-099BD,2026-06-15T02:15:56.031264,15.16348078,.00132732,97.4223,217.8585,341.4202,18.6545,0,U,43809,999,41218,.28024118E-3,.5381E-4,0
GLOBAL-2,2018-099BG,2026-06-15T02:02:29.218560,15.08662448,.0006813,97.3556,202.6860,147.7112,212.4535,0,U,43812,999,41159,.16777234E-3,.2569E-4,0
SEAHAWK-1,2018-099BQ,2026-06-15T02:22:55.228512,15.22779304,.00069361,97.3960,218.6164,324.5803,35.4972,0,U,43820,999,41221,.35874025E-3,.8318E-4,0
SAUDISAT 5A,2018-102A,2026-06-15T06:22:40.026720,15.28030585,.00109246,97.3072,227.8835,134.8961,225.3167,0,U,43831,999,41538,.17936521E-3,.4838E-4,0
SAUDISAT 5B,2018-102C,2026-06-15T06:50:16.077984,15.28288214,.00115863,97.3179,230.9685,137.2411,222.9732,0,U,43833,999,41550,.16806056E-3,.4565E-4,0
ISAT,2018-111D,2026-06-15T07:23:42.495936,15.64995478,.00007192,97.5888,101.3854,107.8790,252.2548,0,U,43879,999,41087,.79366966E-3,.78287E-3,0
UWE-4,2018-111E,2026-06-15T06:33:47.452896,15.46025124,.00058637,97.5858,94.5767,351.2758,8.8387,0,U,43880,999,41048,.56863639E-3,.27746E-3,0
D-STAR ONE (SPARROW),2018-111F,2026-06-15T02:19:32.077056,15.73887773,.00044002,97.6126,106.7393,110.6816,249.4920,0,U,43881,999,41104,.10298328E-2,.14773E-2,0
JILIN-1 09,2019-005B,2026-06-15T06:31:01.652160,15.20500107,.00037994,97.4744,261.2501,98.4212,261.7454,0,U,43943,999,40885,.19722066E-3,.4241E-4,0
JILIN-1 10,2019-005E,2026-06-15T05:23:26.856960,15.25703885,.00065697,97.4791,265.0285,287.8275,72.2246,0,U,43946,999,40901,.19425774E-3,.4879E-4,0
EGYPTSAT-A (MISRSAT-A),2019-008A,2026-06-15T05:46:03.360288,14.72306474,.00012903,98.0167,231.0271,95.2934,264.8420,0,U,44047,999,39295,.12935608E-3,.768E-5,0
EMISAT,2019-018A,2026-06-15T06:33:10.097856,14.43686103,.00176203,98.4651,225.0838,220.7469,139.2404,0,U,44078,999,37978,.36349168E-4,.79E-6,0
