COSMOS 2531 (RODNIK-S *)
1 43752U 18097B   26166.30613037 -.00000076  00000+0 -62258-3 0  9990
2 43752  82.5192 224.5056 0017771  62.2013 298.0866 12.42912105342073
COSMOS 2532 (RODNIK-S *)
1 43753U 18097C   26166.25390571 -.00000008  00000+0 -12848-3 0  9995
2 43753  82.5136 223.3247 0019170  64.1239 296.1814 12.42909415342035
MINXSS-2                
1 43758U 18099A   26166.15107206  .00028891  00000+0  57675-3 0  9997
2 43758  97.4544 242.3758 0006493 263.5903  96.4607 15.46779392413815
SIRION PATHFINDER-2     
1 43759U 18099B   26166.06756145  .00004427  00000+0  24362-3 0  9996
2 43759  97.4254 215.1753 0007322 314.0244  46.0384 15.14533187412300
AISTECHSAT 2            
1 43768U 18099L   26166.10809152  .00004591  00000+0  24634-3 0  9992
2 43768  97.4294 214.1874 0003309 320.8120  39.2873 15.15431718411962
FOX-1CLIFF (AO-95)      
1 43770U 18099N   26166.11139331  .00011091  00000+0  42485-3 0  9998
2 43770  97.4386 226.3649 0008201   5.4671 354.6656 15.26676025412907
RANGE-A                 
1 43773U 18099R   26166.06220717  .00004779  00000+0  27118-3 0  9995
2 43773  97.3964 208.7032 0010022   4.2857 355.8458 15.13374040412178
SNUSAT-2                
1 43782U 18099AA  26166.09772079  .00007546  00000+0  33497-3 0  9993
2 43782  97.4059 219.5134 0008719 306.8695  53.1741 15.21811146412713
SNUGLITE                
1 43784U 18099AC  26166.11246097  .00010865  00000+0  41080-3 0  9999
2 43784  97.3873 220.4128 0001250 309.1681  50.9447 15.27141312413004
ITASAT                  
1 43786U 18099AE  26166.11136198  .00006013  00000+0  28974-3 0  9998
2 43786  97.4029 217.6642 0012323   7.5940 352.5479 15.19035090412594
EAGLET-I                
1 43790U 18099AJ  26166.13479766  .00003822  00000+0  22029-3 0  9996
2 43790  97.4233 215.8577 0010880   1.7928 358.3340 15.12928072412024
ESEO                    
1 43792U 18099AL  26165.98515453  .00002064  00000+0  15245-3 0  9993
2 43792  97.3971 203.4674 0011561 347.3137  12.7797 15.04240129411479
THEA                    
1 43796U 18099AQ  26166.18125313  .00014380  00000+0  42600-3 0  9991
2 43796  97.4445 235.8534 0005829 292.1070  67.9554 15.34956405412385
ASTROCAST 0.1           
1 43798U 18099AS  26166.19482326  .00029082  00000+0  52993-3 0  9995
2 43798  97.4382 244.6297 0004998 210.9292 149.1665 15.49419899414128
JY1SAT (JO-97)          
1 43803U 18099AX  26166.07308693  .00015590  00000+0  48189-3 0  9994
2 43803  97.4132 228.8995 0004244 272.7751  87.3006 15.33596637413307
SUOMI-100               
1 43804U 18099AY  26166.11121239  .00011648  00000+0  42364-3 0  9998
2 43804  97.4195 226.5118 0008398 287.6746  72.3576 15.28375724413102
CENTAURI-1              
1 43809U 18099BD  26166.09439851  .00005381  00000+0  28024-3 0  9996
2 43809  97.4223 217.8585 0013273 341.4202  18.6545 15.16348078412189
GLOBAL-2                
1 43812U 18099BG  26166.08506040  .00002569  00000+0  16777-3 0  9991
2 43812  97.3556 202.6860 0006813 147.7112 212.4535 15.08662448411596
SEAHAWK-1               
1 43820U 18099BQ  26166.09925033  .00008318  00000+0  35874-3 0  9995
2 43820  97.3960 218.6164 0006936 324.5803  35.4972 15.22779304412210
SAUDISAT 5A             
1 43831U 18102A   26166.26574105  .00004838  00000+0  17937-3 0  9994
2 43831  97.3072 227.8835 0010924 134.8961 225.3167 15.28030585415386
SAUDISAT 5B             
1 43833U 18102C   26166.28490831  .00004565  00000+0  16806-3 0  9992
2 43833  97.3179 230.9685 0011586 137.2411 222.9732 15.28288214415505
ISAT                    
1 43879U 18111D   26166.30813074  .00078287  00000+0  79367-3 0  9996
2 43879  97.5888 101.3854 0000719 107.8790 252.2548 15.64995478410875
UWE-4                   
1 43880U 18111E   26166.27346589  .00027746  00000+0  56864-3 0  9997
2 43880  97.5858  94.5767 0005863 351.2758   8.8387 15.46025124410489
D-STAR ONE (SPARROW)    
1 43881U 18111F   26166.09689904  .00147730  00000+0  10298-2 0  9995
2 43881  97.6126 106.7393 0004400 110.6816 249.4920 15.73887773411043
JILIN-1 09              
1 43943U 19005B   26166.27154690  .00004241  00000+0  19722-3 0  9997
2 43943  97.4744 261.2501 0003799  98.4212 261.7454 15.20500107408856
JILIN-1 10              
1 43946U 19005E   26166.22461640  .00004879  00000+0  19426-3 0  9999
2 43946  97.4791 265.0285 0006569 287.8275  72.2246 15.25703885409019
EGYPTSAT-A (MISRSAT-A)  
1 44047U 19008A   26166.24031667  .00000768  00000+0  12936-3 0  9991
2 44047  98.0167 231.0271 0001290  95.2934 264.8420 14.72306474392954
EMISAT                  
1 44078U 19018A   26166.27303354  .00000079  00000+0  36349-4 0  9994
2 44078  98.4651 225.0838 0017620 220.7469 139.2404 14.43686103379785
